GLOBALSTAR M075 [+]     
1 37192U 10054E   24079.33532391 -.00000095  00000+0  47685-4 0  9991
2 37192  51.9933 126.4627 0000399  98.2556 342.5194 12.62271813618565
GLOBALSTAR M073 [+]     
1 37193U 10054F   24079.35366168 -.00000097  00000+0  36766-4 0  9991
2 37193  52.0079  39.8739 0000547  77.3737  87.9052 12.62262523620399
GLOBALSTAR M083 [+]     
1 37739U 11033A   24079.90184340 -.00000084  00000+0  11159-3 0  9990
2 37739  51.9887 347.5613 0000473  58.0212  19.4727 12.62266714589841
GLOBALSTAR M088 [+]     
1 37740U 11033B   24079.89081381 -.00000075  00000+0  16216-3 0  9990
2 37740  51.9715 253.4672 0000718  80.9956  66.9311 12.62266273585318
GLOBALSTAR M091 [+]     
1 37741U 11033C   24079.31917635 -.00000090  00000+0  76742-4 0  9996
2 37741  51.9982 217.9482 0000594  82.7132 286.6051 12.62272501585747
GLOBALSTAR M085 [+]     
1 37742U 11033D   24079.49185859 -.00000102  00000+0  10848-4 0  9990
2 37742  51.9858 168.8661 0000405  95.7748  37.7779 12.62268693586279
GLOBALSTAR M081 [+]     
1 37743U 11033E   24079.59172646 -.00000102  00000+0  99449-5 0  9997
2 37743  51.9950 171.0674 0000580  81.6439  26.5482 12.62270603586819
GLOBALSTAR M089 [+]     
1 37744U 11033F   24079.30835795 -.00000088  00000+0  87506-4 0  9991
2 37744  51.9918 126.2455 0000867 106.8083 332.1331 12.62272510587242
